CCSDS_OMM_VERS = 2.0
CREATION_DATE  = 
ORIGINATOR     = 

OBJECT_NAME    = CORAL
OBJECT_ID      = 1998-067YA
CENTER_NAME    = EARTH
REF_FRAME      = TEME
TIME_SYSTEM    = UTC
MEAN_ELEMENT_THEORY = SGP/SGP4

EPOCH          = 2026-04-05T17:27:30.822048
MEAN_MOTION    = 15.59362518
ECCENTRICITY   = .0013728
INCLINATION    = 51.6287
RA_OF_ASC_NODE = 296.2079
ARG_OF_PERICENTER = 276.4839
MEAN_ANOMALY   = 83.4591

EPHEMERIS_TYPE = 0
CLASSIFICATION_TYPE = U
NORAD_CAT_ID   = 67684
ELEMENT_SET_NO = 999
REV_AT_EPOCH   = 900
BSTAR          = .12984E-2
MEAN_MOTION_DOT = .105757E-2
MEAN_MOTION_DDOT = 0

CCSDS_OMM_VERS = 2.0
CREATION_DATE  = 
ORIGINATOR     = 

OBJECT_NAME    = GXIBA-1
OBJECT_ID      = 1998-067YB
CENTER_NAME    = EARTH
REF_FRAME      = TEME
TIME_SYSTEM    = UTC
MEAN_ELEMENT_THEORY = SGP/SGP4

EPOCH          = 2026-04-05T19:20:29.030784
MEAN_MOTION    = 15.54892116
ECCENTRICITY   = .0012597
INCLINATION    = 51.6302
RA_OF_ASC_NODE = 296.7324
ARG_OF_PERICENTER = 283.2994
MEAN_ANOMALY   = 76.6592

EPHEMERIS_TYPE = 0
CLASSIFICATION_TYPE = U
NORAD_CAT_ID   = 67685
ELEMENT_SET_NO = 999
REV_AT_EPOCH   = 900
BSTAR          = .78016E-3
MEAN_MOTION_DOT = .53148E-3
MEAN_MOTION_DDOT = 0

CCSDS_OMM_VERS = 2.0
CREATION_DATE  = 
ORIGINATOR     = 

OBJECT_NAME    = UITMSAT-2
OBJECT_ID      = 1998-067YC
CENTER_NAME    = EARTH
REF_FRAME      = TEME
TIME_SYSTEM    = UTC
MEAN_ELEMENT_THEORY = SGP/SGP4

EPOCH          = 2026-04-05T20:24:06.633792
MEAN_MOTION    = 15.56068312
ECCENTRICITY   = .0009711
INCLINATION    = 51.6301
RA_OF_ASC_NODE = 296.2798
ARG_OF_PERICENTER = 258.0016
MEAN_ANOMALY   = 101.9887

EPHEMERIS_TYPE = 0
CLASSIFICATION_TYPE = U
NORAD_CAT_ID   = 67686
ELEMENT_SET_NO = 999
REV_AT_EPOCH   = 901
BSTAR          = .85196E-3
MEAN_MOTION_DOT = .6065E-3
MEAN_MOTION_DDOT = 0

CCSDS_OMM_VERS = 2.0
CREATION_DATE  = 
ORIGINATOR     = 

OBJECT_NAME    = HMU-SAT2
OBJECT_ID      = 1998-067YD
CENTER_NAME    = EARTH
REF_FRAME      = TEME
TIME_SYSTEM    = UTC
MEAN_ELEMENT_THEORY = SGP/SGP4

EPOCH          = 2026-04-05T19:29:32.123040
MEAN_MOTION    = 15.54611273
ECCENTRICITY   = .0009202
INCLINATION    = 51.6312
RA_OF_ASC_NODE = 296.7780
ARG_OF_PERICENTER = 261.2680
MEAN_ANOMALY   = 98.7269

EPHEMERIS_TYPE = 0
CLASSIFICATION_TYPE = U
NORAD_CAT_ID   = 67687
ELEMENT_SET_NO = 999
REV_AT_EPOCH   = 892
BSTAR          = .77513E-3
MEAN_MOTION_DOT = .52169E-3
MEAN_MOTION_DDOT = 0

CCSDS_OMM_VERS = 2.0
CREATION_DATE  = 
ORIGINATOR     = 

OBJECT_NAME    = LEOPARD
OBJECT_ID      = 1998-067YE
CENTER_NAME    = EARTH
REF_FRAME      = TEME
TIME_SYSTEM    = UTC
MEAN_ELEMENT_THEORY = SGP/SGP4

EPOCH          = 2026-04-05T20:37:17.819328
MEAN_MOTION    = 15.55534164
ECCENTRICITY   = .0009334
INCLINATION    = 51.6303
RA_OF_ASC_NODE = 296.3413
ARG_OF_PERICENTER = 258.5898
MEAN_ANOMALY   = 101.4045

EPHEMERIS_TYPE = 0
CLASSIFICATION_TYPE = U
NORAD_CAT_ID   = 67688
ELEMENT_SET_NO = 999
REV_AT_EPOCH   = 893
BSTAR          = .77581E-3
MEAN_MOTION_DOT = .54045E-3
MEAN_MOTION_DDOT = 0

CCSDS_OMM_VERS = 2.0
CREATION_DATE  = 
ORIGINATOR     = 

OBJECT_NAME    = CREW DRAGON 12
OBJECT_ID      = 2026-031A
CENTER_NAME    = EARTH
REF_FRAME      = TEME
TIME_SYSTEM    = UTC
MEAN_ELEMENT_THEORY = SGP/SGP4

EPOCH          = 2026-04-05T19:28:26.281920
MEAN_MOTION    = 15.48791307
ECCENTRICITY   = .0006355
INCLINATION    = 51.6329
RA_OF_ASC_NODE = 298.2672
ARG_OF_PERICENTER = 276.3215
MEAN_ANOMALY   = 83.7049

EPHEMERIS_TYPE = 0
CLASSIFICATION_TYPE = U
NORAD_CAT_ID   = 67796
ELEMENT_SET_NO = 999
REV_AT_EPOCH   = 56052
BSTAR          = .1599E-3
MEAN_MOTION_DOT = .8309E-4
MEAN_MOTION_DDOT = 0

CCSDS_OMM_VERS = 2.0
CREATION_DATE  = 
ORIGINATOR     = 

OBJECT_NAME    = PROGRESS-MS 33
OBJECT_ID      = 2026-058A
CENTER_NAME    = EARTH
REF_FRAME      = TEME
TIME_SYSTEM    = UTC
MEAN_ELEMENT_THEORY = SGP/SGP4

EPOCH          = 2026-04-05T19:28:26.281920
MEAN_MOTION    = 15.48791307
ECCENTRICITY   = .0006355
INCLINATION    = 51.6329
RA_OF_ASC_NODE = 298.2672
ARG_OF_PERICENTER = 276.3215
MEAN_ANOMALY   = 83.7049

EPHEMERIS_TYPE = 0
CLASSIFICATION_TYPE = U
NORAD_CAT_ID   = 68319
ELEMENT_SET_NO = 999
REV_AT_EPOCH   = 203
BSTAR          = .1599E-3
MEAN_MOTION_DOT = .8309E-4
MEAN_MOTION_DDOT = 0

